[{"OBJECT_NAME":"STARLINK-31766","OBJECT_ID":"2024-088R","EPOCH":"2026-03-09T10:40:42.466080","MEAN_MOTION":15.30187169,"ECCENTRICITY":0.00010989,"INCLINATION":53.1612,"RA_OF_ASC_NODE":141.1212,"ARG_OF_PERICENTER":77.1102,"MEAN_ANOMALY":283.0021,"EPHEMERIS_TYPE":0,"CLASSIFICATION_TYPE":"U","NORAD_CAT_ID":59723,"ELEMENT_SET_NO":999,"REV_AT_EPOCH":10364,"BSTAR":-3.224748e-6,"MEAN_MOTION_DOT":-4.54e-6,"MEAN_MOTION_DDOT":0},{"OBJECT_NAME":"FENGYUN 1C DEB","OBJECT_ID":"1999-025AQG","EPOCH":"2026-03-09T10:43:06.043872","MEAN_MOTION":15.25746961,"ECCENTRICITY":0.00178142,"INCLINATION":98.9311,"RA_OF_ASC_NODE":250.2123,"ARG_OF_PERICENTER":328.3876,"MEAN_ANOMALY":31.6286,"EPHEMERIS_TYPE":0,"CLASSIFICATION_TYPE":"U","NORAD_CAT_ID":30674,"ELEMENT_SET_NO":999,"REV_AT_EPOCH":98658,"BSTAR":0.015201752,"MEAN_MOTION_DOT":0.00411052,"MEAN_MOTION_DDOT":0}]
